NORAD_CAT_ID,OBJECT_NAME,OBJECT_TYPE,EPOCH,MEAN_MOTION,ECCENTRICITY,INCLINATION,RA_OF_ASC_NODE,ARG_OF_PERICENTER,MEAN_ANOMALY,BSTAR,MEAN_MOTION_DOT,MEAN_MOTION_DDOT,TLE_LINE0,TLE_LINE1,TLE_LINE2,SEMIMAJOR_AXIS,PERIOD,APOGEE,PERIGEE,DECAYED
56478.0,STARLINK-6041,PAYLOAD,2023-06-11 12:13:26,15.6993161,0.0003849,69.9972,155.9355,266.0664,94.0092,1.3409e-05,1.4e-05,0.0,0 STARLINK-6041,1 56478U 23064AG  23162.50932957  .00001400  00000-0  13409-4 0  9995,2 56478  69.9972 155.9355 0003849 266.0664  94.0092 15.69931610  5012,6737.23,91.724,361.688,356.502,0.0
56478.0,STARLINK-6041,PAYLOAD,2023-06-11 16:48:41,15.6992372,0.0003113,69.9973,155.3969,265.637,94.447,1.998e-05,2.19e-05,0.0,0 STARLINK-6041,1 56478U 23064AG  23162.70048598  .00002190  00000-0  19980-4 0  9993,2 56478  69.9973 155.3969 0003113 265.6370  94.4470 15.69923720  5041,6737.252,91.724,361.215,357.02,0.0
56478.0,STARLINK-6041,PAYLOAD,2023-06-12 01:59:12,15.69929858,0.0003539,69.998,154.3216,269.3706,90.7085,9.5896e-06,9.41e-06,0.0,0 STARLINK-6041,1 56478U 23064AG  23163.08278217  .00000941  00000-0  95896-5 0  9991,2 56478  69.9980 154.3216 0003539 269.3706  90.7085 15.69929858  5105,6737.235,91.724,361.484,356.715,0.0
56478.0,STARLINK-6041,PAYLOAD,2023-06-12 08:06:12,15.69933599,0.0003408,69.9979,153.6052,266.322,93.7586,1.461e-05,1.545e-05,0.0,0 STARLINK-6041,1 56478U 23064AG  23163.33764668  .00001545  00000-0  14610-4 0  9994,2 56478  69.9979 153.6052 0003408 266.3220  93.7586 15.69933599  5494,6737.224,91.724,361.385,356.793,0.0
56478.0,STARLINK-6041,PAYLOAD,2023-06-12 09:37:58,15.69929946,0.0003489,69.9997,153.4272,271.3015,88.7781,1.9279e-05,2.106e-05,0.0,0 STARLINK-6041,1 56478U 23064AG  23163.40136599  .00002106  00000-0  19279-4 0  9998,2 56478  69.9997 153.4272 0003489 271.3015  88.7781 15.69929946  5158,6737.234,91.724,361.45,356.749,0.0
56478.0,STARLINK-6041,PAYLOAD,2023-06-13 05:30:44,15.69931843,0.000327,69.9976,151.0954,261.7758,98.3067,1.595e-05,1.706e-05,0.0,0 STARLINK-6041,1 56478U 23064AG  23164.22968254  .00001706  00000-0  15950-4 0  9997,2 56478  69.9976 151.0954 0003270 261.7758  98.3067 15.69931843  5637,6737.229,91.724,361.297,356.891,0.0
56478.0,STARLINK-6041,PAYLOAD,2023-06-13 07:02:29,15.69933382,0.0003409,69.9977,150.9169,263.1503,96.9304,2.0341e-05,2.235e-05,0.0,0 STARLINK-6041,1 56478U 23064AG  23164.29339869  .00002235  00000-0  20341-4 0  9996,2 56478  69.9977 150.9169 0003409 263.1503  96.9304 15.69933382  5292,6737.225,91.724,361.386,356.793,0.0
56478.0,STARLINK-6041,PAYLOAD,2023-06-14 10:34:02,15.69924398,0.0003105,69.9992,147.6923,262.49,97.5943,1.2855e-05,1.333e-05,0.0,0 STARLINK-6041,1 56478U 23064AG  23165.44030518  .00001333  00000-0  12855-4 0  9992,2 56478  69.9992 147.6923 0003105 262.4900  97.5943 15.69924398  5828,6737.25,91.724,361.207,357.023,0.0
56478.0,STARLINK-6041,PAYLOAD,2023-06-15 11:02:04,15.69922535,0.0003151,69.9985,144.8277,271.6037,88.4797,3.2728e-06,1.81e-06,0.0,0 STARLINK-6041,1 56478U 23064AG  23166.45977299  .00000181  00000-0  32728-5 0  9992,2 56478  69.9985 144.8277 0003151 271.6037  88.4797 15.69922535  5631,6737.256,91.724,361.244,356.998,0.0
56478.0,STARLINK-6041,PAYLOAD,2023-06-15 15:37:19,15.69930961,0.0004312,69.9987,144.2934,267.8281,92.2421,5.4264e-05,6.32e-05,0.0,0 STARLINK-6041,1 56478U 23064AG  23166.65091932  .00006320  00000-0  54264-4 0  9994,2 56478  69.9987 144.2934 0004312 267.8281  92.2421 15.69930961  6017,6737.232,91.724,362.002,356.191,0.0
56478.0,STARLINK-6041,PAYLOAD,2023-06-16 00:47:50,15.69927606,0.0003073,69.9998,143.2149,276.8565,83.2281,1.813e-05,1.968e-05,0.0,0 STARLINK-6041,1 56478U 23064AG  23167.03322293  .00001968  00000-0  18130-4 0  9999,2 56478  69.9998 143.2149 0003073 276.8565  83.2281 15.69927606  6076,6737.241,91.724,361.176,357.036,0.0
56478.0,STARLINK-6041,PAYLOAD,2023-06-16 09:58:21,15.69923107,0.0002948,69.9989,142.1403,275.9879,84.098,1.3902e-06,-4.5e-07,0.0,0 STARLINK-6041,1 56478U 23064AG  23167.41552320 -.00000045  00000-0  13902-5 0  9996,2 56478  69.9989 142.1403 0002948 275.9879  84.0980 15.69923107  5789,6737.254,91.724,361.105,357.133,0.0
56478.0,STARLINK-6041,PAYLOAD,2023-06-16 16:05:21,15.69922723,0.0002907,69.999,141.4237,278.8599,81.2267,8.5697e-06,8.18e-06,0.0,0 STARLINK-6041,1 56478U 23064AG  23167.67039112  .00000818  00000-0  85697-5 0  9990,2 56478  69.9990 141.4237 0002907 278.8599  81.2267 15.69922723  5829,6737.255,91.724,361.079,357.162,0.0
56478.0,STARLINK-6041,PAYLOAD,2023-06-16 22:12:21,15.69923803,0.0003537,69.9995,140.7076,264.6051,95.4741,2.9848e-06,1.46e-06,0.0,0 STARLINK-6041,1 56478U 23064AG  23167.92525456  .00000146  00000-0  29848-5 0  9999,2 56478  69.9995 140.7076 0003537 264.6051  95.4741 15.69923803  6211,6737.252,91.724,361.5,356.734,0.0
56478.0,STARLINK-6041,PAYLOAD,2023-06-17 05:51:08,15.69911655,0.000346,69.9988,139.8115,265.7693,94.3107,-2.8811e-05,-3.674e-05,0.0,0 STARLINK-6041,1 56478U 23064AG  23168.24384390 -.00003674  00000-0 -28811-4 0  9994,2 56478  69.9988 139.8115 0003460 265.7693  94.3107 15.69911655  6266,6737.287,91.725,361.483,356.821,0.0
56478.0,STARLINK-6041,PAYLOAD,2023-06-17 10:26:23,15.69918425,0.0003291,69.9992,139.2749,268.2728,91.8091,1.261e-05,1.303e-05,0.0,0 STARLINK-6041,1 56478U 23064AG  23168.43499427  .00001303  00000-0  12610-4 0  9998,2 56478  69.9992 139.2749 0003291 268.2728  91.8091 15.69918425  5947,6737.267,91.725,361.35,356.915,0.0
56478.0,STARLINK-6041,PAYLOAD,2023-06-17 21:08:38,15.69931247,0.0003529,69.9991,138.0199,268.5007,91.5784,3.1225e-05,3.544e-05,0.0,0 STARLINK-6041,1 56478U 23064AG  23168.88100649  .00003544  00000-0  31225-4 0  9994,2 56478  69.9991 138.0199 0003529 268.5007  91.5784 15.69931247  6011,6737.231,91.724,361.473,356.718,0.0
56478.0,STARLINK-6041,PAYLOAD,2023-06-18 04:47:24,15.69932943,0.000362,69.9994,137.1244,266.8615,93.2166,5.5783e-05,6.502e-05,0.0,0 STARLINK-6041,1 56478U 23064AG  23169.19959048  .00006502  00000-0  55783-4 0  9996,2 56478  69.9994 137.1244 0003620 266.8615  93.2166 15.69932943  6065,6737.226,91.724,361.53,356.652,0.0
56478.0,STARLINK-6041,PAYLOAD,2023-06-18 07:50:55,15.69922496,0.0003429,69.9986,136.7651,269.024,91.0563,2.9368e-05,3.32e-05,0.0,0 STARLINK-6041,1 56478U 23064AG  23169.32702749  .00003320  00000-0  29368-4 0  9990,2 56478  69.9986 136.7651 0003429 269.0240  91.0563 15.69922496  6439,6737.256,91.724,361.431,356.811,0.0
56478.0,STARLINK-6041,PAYLOAD,2023-06-19 03:43:41,15.69935785,0.0003305,69.9983,134.4376,262.1781,97.904,5.1652e-05,6.005e-05,0.0,0 STARLINK-6041,1 56478U 23064AG  23170.15534092  .00006005  00000-0  51652-4 0  9991,2 56478  69.9983 134.4376 0003305 262.1781  97.9040 15.69935785  6218,6737.218,91.723,361.309,356.856,0.0
56478.0,STARLINK-6041,PAYLOAD,2023-06-19 06:47:11,15.69931854,0.0003547,69.9993,134.0791,260.6025,99.477,3.7172e-05,4.261e-05,0.0,0 STARLINK-6041,1 56478U 23064AG  23170.28277471  .00004261  00000-0  37172-4 0  9993,2 56478  69.9993 134.0791 0003547 260.6025  99.4770 15.69931854  6230,6737.229,91.724,361.484,356.704,0.0
56478.0,STARLINK-6041,PAYLOAD,2023-06-19 23:36:28,15.6992491,0.0003319,69.9997,132.1089,257.3632,102.7193,1.5684e-05,1.674e-05,0.0,0 STARLINK-6041,1 56478U 23064AG  23170.98366054  .00001674  00000-0  15684-4 0  9995,2 56478  69.9997 132.1089 0003319 257.3632 102.7193 15.69924910  6699,6737.249,91.724,361.35,356.878,0.0
56478.0,STARLINK-6041,PAYLOAD,2023-06-20 08:46:59,15.69916529,0.0002703,70.0007,131.036,272.3793,87.7093,-1.271e-05,-1.74e-05,0.0,0 STARLINK-6041,1 56478U 23064AG  23171.36596596 -.00001740  00000-0 -12710-4 0  9997,2 56478  70.0007 131.0360 0002703 272.3793  87.7093 15.69916529  6750,6737.273,91.725,360.959,357.317,0.0
56478.0,STARLINK-6041,PAYLOAD,2023-06-20 14:53:59,15.6992884,0.0003654,70.0003,130.3176,265.9367,94.1411,2.6641e-05,2.992e-05,0.0,0 STARLINK-6041,1 56478U 23064AG  23171.62082711  .00002992  00000-0  26641-4 0  9991,2 56478  70.0003 130.3176 0003654 265.9367  94.1411 15.69928840  6793,6737.238,91.724,361.564,356.641,0.0
56478.0,STARLINK-6041,PAYLOAD,2023-06-21 00:04:29,15.69951976,0.0003143,69.9999,129.2433,234.5196,125.5707,8.0644e-05,9.506e-05,0.0,0 STARLINK-6041,1 56478U 23064AG  23172.00311720  .00009506  00000-0  80644-4 0  9990,2 56478  69.9999 129.2433 0003143 234.5196 125.5707 15.69951976  6852,6737.171,91.723,361.154,356.919,0.0
56478.0,STARLINK-6041,PAYLOAD,2023-06-21 07:43:16,15.69926546,0.000303,69.9999,128.3506,276.1832,83.9019,1.6751e-05,1.802e-05,0.0,0 STARLINK-6041,1 56478U 23064AG  23172.32171434  .00001802  00000-0  16751-4 0  9990,2 56478  69.9999 128.3506 0003030 276.1832  83.9019 15.69926546  6901,6737.244,91.724,361.151,357.068,0.0
56478.0,STARLINK-6041,PAYLOAD,2023-06-22 08:11:17,15.69929921,0.0003375,69.9992,125.4807,268.6415,91.4394,1.0443e-05,1.043e-05,0.0,0 STARLINK-6041,1 56478U 23064AG  23173.34117834  .00001043  00000-0  10443-4 0  9996,2 56478  69.9992 125.4807 0003375 268.6415  91.4394 15.69929921  7069,6737.234,91.724,361.373,356.826,0.0
56478.0,STARLINK-6041,PAYLOAD,2023-06-23 07:07:34,15.69922063,0.0003101,70.0001,122.796,268.0025,92.0816,2.0219e-06,3.1e-07,0.0,0 STARLINK-6041,1 56478U 23064AG  23174.29693265  .00000031  00000-0  20219-5 0  9997,2 56478  70.0001 122.7960 0003101 268.0025  92.0816 15.69922063  7214,6737.257,91.724,361.211,357.033,0.0
56478.0,STARLINK-6041,PAYLOAD,2023-06-24 06:03:52,15.69912192,0.0003392,69.9994,120.1073,262.7663,97.3147,-2.5472e-05,-3.273e-05,0.0,0 STARLINK-6041,1 56478U 23064AG  23175.25268571 -.00003273  00000-0 -25472-4 0  9990,2 56478  69.9994 120.1073 0003392 262.7663  97.3147 15.69912192  7363,6737.285,91.725,361.436,356.865,0.0
56478.0,STARLINK-6041,PAYLOAD,2023-06-24 13:42:37,15.69923488,0.0003078,69.9984,119.2112,263.9101,96.1744,1.9092e-05,2.083e-05,0.0,0 STARLINK-6041,1 56478U 23064AG  23175.57126832  .00002083  00000-0  19092-4 0  9995,2 56478  69.9984 119.2112 0003078 263.9101  96.1744 15.69923488  7412,6737.253,91.724,361.192,357.044,0.0
